{"type": "FeatureCollection", "features": [ {"type": "Feature", "properties": {"norad_id": 44476, "name": "INTELSAT 39 (IS-39)", "group": "intelsat", "lat": 0.015063595660348596, "lon": -4.473856335958734, "alt_km": 35791.00570219388, "timestamp": "2025-12-17T13:48:37.212296+00:00", "meta": {"OBJECT_NAME": "INTELSAT 39 (IS-39)", "OBJECT_ID": "2019-049B", "EPOCH": "2025-12-16T15:21:48.311136", "MEAN_MOTION": 1.00270803, "ECCENTRICITY": 0.00013758, "INCLINATION": 0.0182, "RA_OF_ASC_NODE": 330.6719, "ARG_OF_PERICENTER": 169.661, "MEAN_ANOMALY": 237.5916, "EPHEMERIS_TYPE": 0, "CLASSIFICATION_TYPE": "U", "NORAD_CAT_ID": 44476, "ELEMENT_SET_NO": 999, "REV_AT_EPOCH": 2329, "BSTAR": 0, "MEAN_MOTION_DOT": 5.7e-07, "MEAN_MOTION_DDOT": 0}, "tle": {"line1": "1 44476U 19049B   25350.64014249  .00000057  00000+0  00000+0 0  9993", "line2": "2 44476   0.0182 330.6719 0001375 169.6610 237.5916  1.00270803 23292"}}, "geometry": {"type": "Point", "coordinates": [-4.473856335958734, 0.015063595660348596]}}, {"type": "Feature", "properties": {"norad_id": 46114, "name": "GALAXY 30 (G-30)", "group": "intelsat", "lat": 0.007142258159710568, "lon": 168.57323071635915, "alt_km": 35786.6707129932, "timestamp": "2025-12-17T13:48:37.212307+00:00", "meta": {"OBJECT_NAME": "GALAXY 30 (G-30)", "OBJECT_ID": "2020-056C", "EPOCH": "2025-12-16T10:32:38.625216", "MEAN_MOTION": 1.00271809, "ECCENTRICITY": 0.00020504, "INCLINATION": 0.0174, "RA_OF_ASC_NODE": 8.9673, "ARG_OF_PERICENTER": 254.0657, "MEAN_ANOMALY": 215.4609, "EPHEMERIS_TYPE": 0, "CLASSIFICATION_TYPE": "U", "NORAD_CAT_ID": 46114, "ELEMENT_SET_NO": 999, "REV_AT_EPOCH": 1946, "BSTAR": 0, "MEAN_MOTION_DOT": 6e-07, "MEAN_MOTION_DDOT": 0}, "tle": {"line1": "1 46114U 20056C   25350.43933594  .00000060  00000+0  00000+0 0  9998", "line2": "2 46114   0.0174   8.9673 0002050 254.0657 215.4609  1.00271809 19464"}}, "geometry": {"type": "Point", "coordinates": [168.57323071635915, 0.007142258159710568]}}, {"type": "Feature", "properties": {"norad_id": 54026, "name": "GALAXY 33 (G-33)", "group": "intelsat", "lat": 0.009531076159308571, "lon": 160.58836981091946, "alt_km": 35786.8825396386, "timestamp": "2025-12-17T13:48:37.212318+00:00", "meta": {"OBJECT_NAME": "GALAXY 33 (G-33)", "OBJECT_ID": "2022-128A", "EPOCH": "2025-12-17T05:07:38.720640", "MEAN_MOTION": 1.00273494, "ECCENTRICITY": 0.00017525, "INCLINATION": 0.0162, "RA_OF_ASC_NODE": 1.7477, "ARG_OF_PERICENTER": 259.0138, "MEAN_ANOMALY": 129.2561, "EPHEMERIS_TYPE": 0, "CLASSIFICATION_TYPE": "U", "NORAD_CAT_ID": 54026, "ELEMENT_SET_NO": 999, "REV_AT_EPOCH": 1191, "BSTAR": 0, "MEAN_MOTION_DOT": 1.03e-06, "MEAN_MOTION_DDOT": 0}, "tle": {"line1": "1 54026U 22128A   25351.21364260  .00000103  00000+0  00000+0 0  9994", "line2": "2 54026   0.0162   1.7477 0001752 259.0138 129.2561  1.00273494 11915"}}, "geometry": {"type": "Point", "coordinates": [160.58836981091946, 0.009531076159308571]}}, {"type": "Feature", "properties": {"norad_id": 54027, "name": "GALAXY 34 (G-34)", "group": "intelsat", "lat": -0.005629547685191963, "lon": 164.65182305443398, "alt_km": 35786.80547135016, "timestamp": "2025-12-17T13:48:37.212329+00:00", "meta": {"OBJECT_NAME": "GALAXY 34 (G-34)", "OBJECT_ID": "2022-128B", "EPOCH": "2025-12-16T10:54:44.613792", "MEAN_MOTION": 1.00271358, "ECCENTRICITY": 0.00014405, "INCLINATION": 0.0238, "RA_OF_ASC_NODE": 335.9527, "ARG_OF_PERICENTER": 285.2083, "MEAN_ANOMALY": 218.9464, "EPHEMERIS_TYPE": 0, "CLASSIFICATION_TYPE": "U", "NORAD_CAT_ID": 54027, "ELEMENT_SET_NO": 999, "REV_AT_EPOCH": 1208, "BSTAR": 0, "MEAN_MOTION_DOT": 0, "MEAN_MOTION_DDOT": 0}, "tle": {"line1": "1 54027U 22128B   25350.45468303  .00000000  00000+0  00000+0 0  9999", "line2": "2 54027   0.0238 335.9527 0001440 285.2083 218.9464  1.00271358 12086"}}, "geometry": {"type": "Point", "coordinates": [164.65182305443398, -0.005629547685191963]}}, {"type": "Feature", "properties": {"norad_id": 54243, "name": "GALAXY 31 (G-31)", "group": "intelsat", "lat": 0.010021500833201082, "lon": 172.57396235165677, "alt_km": 35788.074496705536, "timestamp": "2025-12-17T13:48:37.212341+00:00", "meta": {"OBJECT_NAME": "GALAXY 31 (G-31)", "OBJECT_ID": "2022-153A", "EPOCH": "2025-12-17T04:11:22.587072", "MEAN_MOTION": 1.00271859, "ECCENTRICITY": 0.00014875, "INCLINATION": 0.0176, "RA_OF_ASC_NODE": 27.0673, "ARG_OF_PERICENTER": 254.5573, "MEAN_ANOMALY": 106.2713, "EPHEMERIS_TYPE": 0, "CLASSIFICATION_TYPE": "U", "NORAD_CAT_ID": 54243, "ELEMENT_SET_NO": 999, "REV_AT_EPOCH": 530, "BSTAR": 0, "MEAN_MOTION_DOT": 0, "MEAN_MOTION_DDOT": 0}, "tle": {"line1": "1 54243U 22153A   25351.17456698  .00000000  00000+0  00000+0 0  9991", "line2": "2 54243   0.0176  27.0673 0001487 254.5573 106.2713  1.00271859  5301"}}, "geometry": {"type": "Point", "coordinates": [172.57396235165677, 0.010021500833201082]}}, {"type": "Feature", "properties": {"norad_id": 54244, "name": "GALAXY 32 (G-32)", "group": "intelsat", "lat": -0.024243471607851907, "lon": -157.4339313436155, "alt_km": 35790.90853819082, "timestamp": "2025-12-17T13:48:37.212352+00:00", "meta": {"OBJECT_NAME": "GALAXY 32 (G-32)", "OBJECT_ID": "2022-153B", "EPOCH": "2025-12-17T04:19:59.261664", "MEAN_MOTION": 1.00271531, "ECCENTRICITY": 0.000259, "INCLINATION": 0.0104, "RA_OF_ASC_NODE": 339.7375, "ARG_OF_PERICENTER": 338.8221, "MEAN_ANOMALY": 101.4983, "EPHEMERIS_TYPE": 0, "CLASSIFICATION_TYPE": "U", "NORAD_CAT_ID": 54244, "ELEMENT_SET_NO": 999, "REV_AT_EPOCH": 1131, "BSTAR": 0, "MEAN_MOTION_DOT": -1.5e-06, "MEAN_MOTION_DDOT": 0}, "tle": {"line1": "1 54244U 22153B   25351.18054701 -.00000150  00000+0  00000+0 0  9999", "line2": "2 54244   0.0104 339.7375 0002590 338.8221 101.4983  1.00271531 11318"}}, "geometry": {"type": "Point", "coordinates": [-157.4339313436155, -0.024243471607851907]}}, {"type": "Feature", "properties": {"norad_id": 54741, "name": "GALAXY 35 (G-35)", "group": "intelsat", "lat": -0.013879165368678332, "lon": -159.55270085448, "alt_km": 35783.95645465432, "timestamp": "2025-12-17T13:48:37.212363+00:00", "meta": {"OBJECT_NAME": "GALAXY 35 (G-35)", "OBJECT_ID": "2022-170A", "EPOCH": "2025-12-17T04:19:21.821952", "MEAN_MOTION": 1.00269104, "ECCENTRICITY": 0.00022634, "INCLINATION": 0.0174, "RA_OF_ASC_NODE": 12.1275, "ARG_OF_PERICENTER": 260.8442, "MEAN_ANOMALY": 144.8125, "EPHEMERIS_TYPE": 0, "CLASSIFICATION_TYPE": "U", "NORAD_CAT_ID": 54741, "ELEMENT_SET_NO": 999, "REV_AT_EPOCH": 1106, "BSTAR": 0, "MEAN_MOTION_DOT": 0, "MEAN_MOTION_DDOT": 0}, "tle": {"line1": "1 54741U 22170A   25351.18011368  .00000000  00000+0  00000+0 0  9995", "line2": "2 54741   0.0174  12.1275 0002263 260.8442 144.8125  1.00269104 11068"}}, "geometry": {"type": "Point", "coordinates": [-159.55270085448, -0.013879165368678332]}}, {"type": "Feature", "properties": {"norad_id": 54742, "name": "GALAXY 36 (G-36)", "group": "intelsat", "lat": -0.021046191458003467, "lon": -155.40863918054913, "alt_km": 35787.12882755607, "timestamp": "2025-12-17T13:48:37.212374+00:00", "meta": {"OBJECT_NAME": "GALAXY 36 (G-36)", "OBJECT_ID": "2022-170B", "EPOCH": "2025-12-16T19:46:46.668000", "MEAN_MOTION": 1.00271322, "ECCENTRICITY": 3.209e-05, "INCLINATION": 0.0145, "RA_OF_ASC_NODE": 272.7554, "ARG_OF_PERICENTER": 62.371, "MEAN_ANOMALY": 318.28, "EPHEMERIS_TYPE": 0, "CLASSIFICATION_TYPE": "U", "NORAD_CAT_ID": 54742, "ELEMENT_SET_NO": 999, "REV_AT_EPOCH": 1094, "BSTAR": 0, "MEAN_MOTION_DOT": -1.61e-06, "MEAN_MOTION_DDOT": 0}, "tle": {"line1": "1 54742U 22170B   25350.82415125 -.00000161  00000+0  00000+0 0  9994", "line2": "2 54742   0.0145 272.7554 0000320  62.3710 318.2800  1.00271322 10944"}}, "geometry": {"type": "Point", "coordinates": [-155.40863918054913, -0.021046191458003467]}}, {"type": "Feature", "properties": {"norad_id": 57493, "name": "GALAXY 37 (G-37)", "group": "intelsat", "lat": 0.0217115803829335, "lon": 166.58682237448923, "alt_km": 35787.67160461572, "timestamp": "2025-12-17T13:48:37.212386+00:00", "meta": {"OBJECT_NAME": "GALAXY 37 (G-37)", "OBJECT_ID": "2023-112A", "EPOCH": "2025-12-15T23:03:25.663680", "MEAN_MOTION": 1.00272925, "ECCENTRICITY": 0.00019988, "INCLINATION": 0.0242, "RA_OF_ASC_NODE": 56.2601, "ARG_OF_PERICENTER": 214.3075, "MEAN_ANOMALY": 33.1555, "EPHEMERIS_TYPE": 0, "CLASSIFICATION_TYPE": "U", "NORAD_CAT_ID": 57493, "ELEMENT_SET_NO": 999, "REV_AT_EPOCH": 870, "BSTAR": 0, "MEAN_MOTION_DOT": 7e-07, "MEAN_MOTION_DDOT": 0}, "tle": {"line1": "1 57493U 23112A   25349.96071370  .00000070  00000+0  00000+0 0  9998", "line2": "2 57493   0.0242  56.2601 0001998 214.3075  33.1555  1.00272925  8702"}}, "geometry": {"type": "Point", "coordinates": [166.58682237448923, 0.0217115803829335]}}]}